[{"OBJECT_NAME":"STARLINK-30107","OBJECT_ID":"2023-056B","EPOCH":"2026-03-09T15:47:04.884288","MEAN_MOTION":15.27572483,"ECCENTRICITY":0.00010754,"INCLINATION":43.0025,"RA_OF_ASC_NODE":191.3282,"ARG_OF_PERICENTER":253.28,"MEAN_ANOMALY":106.7934,"EPHEMERIS_TYPE":0,"CLASSIFICATION_TYPE":"U","NORAD_CAT_ID":56287,"ELEMENT_SET_NO":999,"REV_AT_EPOCH":16029,"BSTAR":5.08637e-6,"MEAN_MOTION_DOT":-1.22e-6,"MEAN_MOTION_DDOT":0},{"OBJECT_NAME":"FLOCK 4G-5","OBJECT_ID":"2025-009BG","EPOCH":"2026-03-09T10:57:11.608704","MEAN_MOTION":15.28679529,"ECCENTRICITY":0.00020946,"INCLINATION":97.4058,"RA_OF_ASC_NODE":151.2478,"ARG_OF_PERICENTER":314.5072,"MEAN_ANOMALY":45.5996,"EPHEMERIS_TYPE":0,"CLASSIFICATION_TYPE":"U","NORAD_CAT_ID":62663,"ELEMENT_SET_NO":999,"REV_AT_EPOCH":6369,"BSTAR":0.00040688068,"MEAN_MOTION_DOT":0.00011278,"MEAN_MOTION_DDOT":0}]
